CCSDS_OMM_VERS = 2.0
CREATION_DATE  = 
ORIGINATOR     = 

OBJECT_NAME    = SL-16 R/B
OBJECT_ID      = 1998-043G
CENTER_NAME    = EARTH
REF_FRAME      = TEME
TIME_SYSTEM    = UTC
MEAN_ELEMENT_THEORY = SGP/SGP4

EPOCH          = 2026-03-05T17:34:29.652096
MEAN_MOTION    = 14.26048615
ECCENTRICITY   = .00104
INCLINATION    = 98.8249
RA_OF_ASC_NODE = 18.0679
ARG_OF_PERICENTER = 31.3071
MEAN_ANOMALY   = 328.8725

EPHEMERIS_TYPE = 0
CLASSIFICATION_TYPE = U
NORAD_CAT_ID   = 25400
ELEMENT_SET_NO = 999
REV_AT_EPOCH   = 43842
BSTAR          = .56835E-4
MEAN_MOTION_DOT = .91E-6
MEAN_MOTION_DDOT = 0

CCSDS_OMM_VERS = 2.0
CREATION_DATE  = 
ORIGINATOR     = 

OBJECT_NAME    = SL-16 R/B
OBJECT_ID      = 1998-045B
CENTER_NAME    = EARTH
REF_FRAME      = TEME
TIME_SYSTEM    = UTC
MEAN_ELEMENT_THEORY = SGP/SGP4

EPOCH          = 2026-03-05T16:31:14.054304
MEAN_MOTION    = 14.16189129
ECCENTRICITY   = .0006504
INCLINATION    = 71.0114
RA_OF_ASC_NODE = 189.9878
ARG_OF_PERICENTER = 14.1090
MEAN_ANOMALY   = 346.0214

EPHEMERIS_TYPE = 0
CLASSIFICATION_TYPE = U
NORAD_CAT_ID   = 25407
ELEMENT_SET_NO = 999
REV_AT_EPOCH   = 42653
BSTAR          = -.31582E-4
MEAN_MOTION_DOT = -.11E-5
MEAN_MOTION_DDOT = 0

CCSDS_OMM_VERS = 2.0
CREATION_DATE  = 
ORIGINATOR     = 

OBJECT_NAME    = ISS (ZARYA)
OBJECT_ID      = 1998-067A
CENTER_NAME    = EARTH
REF_FRAME      = TEME
TIME_SYSTEM    = UTC
MEAN_ELEMENT_THEORY = SGP/SGP4

EPOCH          = 2026-03-05T16:56:13.265376
MEAN_MOTION    = 15.48463204
ECCENTRICITY   = .0008143
INCLINATION    = 51.6315
RA_OF_ASC_NODE = 92.0530
ARG_OF_PERICENTER = 160.3826
MEAN_ANOMALY   = 199.7477

EPHEMERIS_TYPE = 0
CLASSIFICATION_TYPE = U
NORAD_CAT_ID   = 25544
ELEMENT_SET_NO = 999
REV_AT_EPOCH   = 55571
BSTAR          = .17141E-3
MEAN_MOTION_DOT = .8837E-4
MEAN_MOTION_DDOT = 0

CCSDS_OMM_VERS = 2.0
CREATION_DATE  = 
ORIGINATOR     = 

OBJECT_NAME    = CZ-4B R/B
OBJECT_ID      = 1999-025C
CENTER_NAME    = EARTH
REF_FRAME      = TEME
TIME_SYSTEM    = UTC
MEAN_ELEMENT_THEORY = SGP/SGP4

EPOCH          = 2026-03-05T17:22:28.562016
MEAN_MOTION    = 14.18264521
ECCENTRICITY   = .0036967
INCLINATION    = 98.6634
RA_OF_ASC_NODE = 109.0993
ARG_OF_PERICENTER = 358.0685
MEAN_ANOMALY   = 110.0549

EPHEMERIS_TYPE = 0
CLASSIFICATION_TYPE = U
NORAD_CAT_ID   = 25732
ELEMENT_SET_NO = 999
REV_AT_EPOCH   = 38760
BSTAR          = .5791E-4
MEAN_MOTION_DOT = .77E-6
MEAN_MOTION_DDOT = 0

CCSDS_OMM_VERS = 2.0
CREATION_DATE  = 
ORIGINATOR     = 

OBJECT_NAME    = OKEAN-O
OBJECT_ID      = 1999-039A
CENTER_NAME    = EARTH
REF_FRAME      = TEME
TIME_SYSTEM    = UTC
MEAN_ELEMENT_THEORY = SGP/SGP4

EPOCH          = 2026-03-05T17:33:25.862976
MEAN_MOTION    = 14.80328292
ECCENTRICITY   = .000138
INCLINATION    = 97.9449
RA_OF_ASC_NODE = 124.6631
ARG_OF_PERICENTER = 70.3542
MEAN_ANOMALY   = 289.7819

EPHEMERIS_TYPE = 0
CLASSIFICATION_TYPE = U
NORAD_CAT_ID   = 25860
ELEMENT_SET_NO = 999
REV_AT_EPOCH   = 43380
BSTAR          = .13182E-3
MEAN_MOTION_DOT = .953E-5
MEAN_MOTION_DDOT = 0

CCSDS_OMM_VERS = 2.0
CREATION_DATE  = 
ORIGINATOR     = 

OBJECT_NAME    = SL-16 R/B
OBJECT_ID      = 1999-039B
CENTER_NAME    = EARTH
REF_FRAME      = TEME
TIME_SYSTEM    = UTC
MEAN_ELEMENT_THEORY = SGP/SGP4

EPOCH          = 2026-03-05T17:09:48.265344
MEAN_MOTION    = 14.81725530
ECCENTRICITY   = .0013431
INCLINATION    = 97.9973
RA_OF_ASC_NODE = 123.8176
ARG_OF_PERICENTER = 270.3696
MEAN_ANOMALY   = 89.5978

EPHEMERIS_TYPE = 0
CLASSIFICATION_TYPE = U
NORAD_CAT_ID   = 25861
ELEMENT_SET_NO = 999
REV_AT_EPOCH   = 43627
BSTAR          = .11296E-3
MEAN_MOTION_DOT = .837E-5
MEAN_MOTION_DDOT = 0

CCSDS_OMM_VERS = 2.0
CREATION_DATE  = 
ORIGINATOR     = 

OBJECT_NAME    = DELTA 2 R/B
OBJECT_ID      = 1999-041E
CENTER_NAME    = EARTH
REF_FRAME      = TEME
TIME_SYSTEM    = UTC
MEAN_ELEMENT_THEORY = SGP/SGP4

EPOCH          = 2026-03-05T18:15:11.238336
MEAN_MOTION    = 14.11825663
ECCENTRICITY   = .0502363
INCLINATION    = 51.7640
RA_OF_ASC_NODE = 316.9739
ARG_OF_PERICENTER = 336.8392
MEAN_ANOMALY   = 21.0590

EPHEMERIS_TYPE = 0
CLASSIFICATION_TYPE = U
NORAD_CAT_ID   = 25876
ELEMENT_SET_NO = 999
REV_AT_EPOCH   = 36247
BSTAR          = .31258E-3
MEAN_MOTION_DOT = .1708E-4
MEAN_MOTION_DDOT = 0

CCSDS_OMM_VERS = 2.0
CREATION_DATE  = 
ORIGINATOR     = 

OBJECT_NAME    = HELIOS 1B
OBJECT_ID      = 1999-064A
CENTER_NAME    = EARTH
REF_FRAME      = TEME
TIME_SYSTEM    = UTC
MEAN_ELEMENT_THEORY = SGP/SGP4

EPOCH          = 2026-03-05T16:16:44.897088
MEAN_MOTION    = 14.87680091
ECCENTRICITY   = .0002507
INCLINATION    = 98.1698
RA_OF_ASC_NODE = 326.8039
ARG_OF_PERICENTER = 80.2123
MEAN_ANOMALY   = 279.9376

EPHEMERIS_TYPE = 0
CLASSIFICATION_TYPE = U
NORAD_CAT_ID   = 25977
ELEMENT_SET_NO = 999
REV_AT_EPOCH   = 68466
BSTAR          = .34317E-3
MEAN_MOTION_DOT = .3067E-4
MEAN_MOTION_DDOT = 0

CCSDS_OMM_VERS = 2.0
CREATION_DATE  = 
ORIGINATOR     = 

OBJECT_NAME    = TERRA
OBJECT_ID      = 1999-068A
CENTER_NAME    = EARTH
REF_FRAME      = TEME
TIME_SYSTEM    = UTC
MEAN_ELEMENT_THEORY = SGP/SGP4

EPOCH          = 2026-03-05T19:29:45.144384
MEAN_MOTION    = 14.61010123
ECCENTRICITY   = .0002463
INCLINATION    = 97.9601
RA_OF_ASC_NODE = 118.3950
ARG_OF_PERICENTER = 160.7752
MEAN_ANOMALY   = 264.6855

EPHEMERIS_TYPE = 0
CLASSIFICATION_TYPE = U
NORAD_CAT_ID   = 25994
ELEMENT_SET_NO = 999
REV_AT_EPOCH   = 39451
BSTAR          = .1382E-3
MEAN_MOTION_DOT = .633E-5
MEAN_MOTION_DDOT = 0

CCSDS_OMM_VERS = 2.0
CREATION_DATE  = 
ORIGINATOR     = 

OBJECT_NAME    = SL-16 R/B
OBJECT_ID      = 2000-006B
CENTER_NAME    = EARTH
REF_FRAME      = TEME
TIME_SYSTEM    = UTC
MEAN_ELEMENT_THEORY = SGP/SGP4

EPOCH          = 2026-03-05T13:28:28.315776
MEAN_MOTION    = 14.15825328
ECCENTRICITY   = .0017079
INCLINATION    = 71.0012
RA_OF_ASC_NODE = 106.5183
ARG_OF_PERICENTER = 195.9469
MEAN_ANOMALY   = 164.1119

EPHEMERIS_TYPE = 0
CLASSIFICATION_TYPE = U
NORAD_CAT_ID   = 26070
ELEMENT_SET_NO = 999
REV_AT_EPOCH   = 34797
BSTAR          = .8907E-4
MEAN_MOTION_DOT = .128E-5
MEAN_MOTION_DDOT = 0

CCSDS_OMM_VERS = 2.0
CREATION_DATE  = 
ORIGINATOR     = 

OBJECT_NAME    = TITAN 4B R/B
OBJECT_ID      = 2000-047B
CENTER_NAME    = EARTH
REF_FRAME      = TEME
TIME_SYSTEM    = UTC
MEAN_ELEMENT_THEORY = SGP/SGP4

EPOCH          = 2026-03-05T20:29:05.278848
MEAN_MOTION    = 15.09517129
ECCENTRICITY   = .0038228
INCLINATION    = 67.9892
RA_OF_ASC_NODE = 51.2965
ARG_OF_PERICENTER = 39.9288
MEAN_ANOMALY   = 320.4661

EPHEMERIS_TYPE = 0
CLASSIFICATION_TYPE = U
NORAD_CAT_ID   = 26474
ELEMENT_SET_NO = 999
REV_AT_EPOCH   = 39233
BSTAR          = .36392E-3
MEAN_MOTION_DOT = .5818E-4
MEAN_MOTION_DDOT = 0

CCSDS_OMM_VERS = 2.0
CREATION_DATE  = 
ORIGINATOR     = 

OBJECT_NAME    = ENVISAT
OBJECT_ID      = 2002-009A
CENTER_NAME    = EARTH
REF_FRAME      = TEME
TIME_SYSTEM    = UTC
MEAN_ELEMENT_THEORY = SGP/SGP4

EPOCH          = 2026-03-05T20:19:51.636288
MEAN_MOTION    = 14.39035320
ECCENTRICITY   = .0001332
INCLINATION    = 98.3722
RA_OF_ASC_NODE = 18.5361
ARG_OF_PERICENTER = 84.3208
MEAN_ANOMALY   = 283.9722

EPHEMERIS_TYPE = 0
CLASSIFICATION_TYPE = U
NORAD_CAT_ID   = 27386
ELEMENT_SET_NO = 999
REV_AT_EPOCH   = 25862
BSTAR          = .77814E-4
MEAN_MOTION_DOT = .197E-5
MEAN_MOTION_DDOT = 0

